[{"fax":"334-353-0004","url":"http://www.governor.alabama.gov/","name":"Robert Bentley","city":"Montgomery","state_name":"Alabama","state":"AL","address_2":"600 Dexter Avenue","address_1":"State Capitol","zip":"36130-2751","phone":"334-242-7100"},{"fax":"907-465-3532","url":"http://gov.state.ak.us/","name":"Bill Walker","city":"Juneau","state_name":"Alaska","state":"AK","address_2":null,"address_1":"State Capitol","zip":"99811-0001","phone":"907-465-3500"},{"fax":"+011-684-633-2269","url":null,"name":"Lolo Matalasi Moliga","city":"Utulei","state_name":"American Samoa","state":"AS","address_2":"Third Floor","address_1":"Executive Office Building","zip":"96799","phone":"+011-684-633-4116"},{"fax":"602-542-7601","url":"http://www.governor.state.az.us/","name":"Doug Ducey","city":"Phoenix","state_name":"Arizona","state":"AZ","address_2":"1700 West Washington","address_1":"State Capitol","zip":"85007","phone":"602-542-4331"},{"fax":"501-682-1382","url":"http://www.arkansas.gov/governor/","name":"Asa Hutchinson","city":"Little Rock","state_name":"Arkansas","state":"AR","address_2":"Room 250","address_1":"State Capitol","zip":"72201","phone":"501-682-2345"},{"fax":"916-558-3160","url":"http://gov.ca.gov/","name":"Jerry Brown","city":"Sacramento","state_name":"California","state":"CA","address_2":null,"address_1":"State Capitol","zip":"95814","phone":"916-445-2841"},{"fax":"303-866-2003","url":"http://www.colorado.gov/governor/","name":"John Hickenlooper","city":"Denver","state_name":"Colorado","state":"CO","address_2":null,"address_1":"136 State Capitol","zip":"80203-1792","phone":"303-866-2471"},{"fax":"860-524-7395","url":"http://www.ct.gov/governor/","name":"Dan Malloy","city":"Hartford","state_name":"Connecticut","state":"CT","address_2":null,"address_1":"210 Capitol Avenue","zip":"06106","phone":"800-406-1527"},{"fax":"302-739-2775","url":"http://governor.delaware.gov/","name":"Jack Markell","city":"Dover","state_name":"Delaware","state":"DE","address_2":null,"address_1":"Legislative Hall","zip":"19901","phone":"302-744-4101"},{"fax":"850-487-0801","url":"http://www.flgov.com/","name":"Rick Scott","city":"Tallahassee","state_name":"Florida","state":"FL","address_2":"400 South Monroe Street","address_1":"PL 05 The Capitol","zip":"32399-0001","phone":"850-488-7146"},{"fax":"404-657-7332","url":"http://gov.georgia.gov/","name":"Nathan Deal","city":"Atlanta","state_name":"Georgia","state":"GA","address_2":null,"address_1":"203 State Capitol","zip":"30334","phone":"404-656-1776"},{"fax":"671-477-4826","url":"http://governor.guam.gov/","name":"Eddie Calvo","city":"Agana","state_name":"Guam","state":"GU","address_2":"P.O. Box 2950","address_1":"Executive Chamber","zip":"96932","phone":"671-472-8931"},{"fax":"808-586-0006","url":"http://www.hawaii.gov/gov/","name":"David Ige","city":"Honolulu","state_name":"Hawaii","state":"HI","address_2":"State Capitol","address_1":"Executive Chambers","zip":"96813","phone":"808-586-0034"},{"fax":"208-334-2175","url":"http://gov.idaho.gov/","name":"C.L \"Butch\" Otter","city":"Boise","state_name":"Idaho","state":"ID","address_2":"Second Floor","address_1":"700 West Jefferson","zip":"83702","phone":"208-334-2100"},{"fax":"217-524-4049","url":"http://www.illinois.gov/gov/","name":"Bruce Rauner","city":"Springfield","state_name":"Illinois","state":"IL","address_2":"207 Statehouse","address_1":"State Capitol","zip":"62706","phone":"217-782-0244"},{"fax":"317-232-3443","url":"http://www.in.gov/gov/index.htm","name":"Mike Pence","city":"Indianapolis","state_name":"Indiana","state":"IN","address_2":"Room 206","address_1":"State House","zip":"46204-2797","phone":"317-232-4567"},{"fax":"515-281-6611","url":"https://governor.iowa.gov/","name":"Terry Branstad","city":"Des Moines","state_name":"Iowa","state":"IA","address_2":null,"address_1":"State Capitol","zip":"50319-0001","phone":"515-281-5211"},{"fax":"785-296-7973","url":"http://www.governor.ks.gov/","name":"Sam Brownback","city":"Topeka","state_name":"Kansas","state":"KS","address_2":"300 SW 10th Avenue, Suite 212S","address_1":"Capitol","zip":"66612-1590","phone":"785-296-3232"},{"fax":"502-564-0437","url":"http://governor.ky.gov","name":"Matt Bevin","city":"Frankfort","state_name":"Kentucky","state":"KY","address_2":null,"address_1":"700 Capitol Ave., Suite 100","zip":"40601","phone":"502-564-2611"},{"fax":"225-342-7099","url":"http://www.gov.state.la.us/","name":"John Bel Edwards","city":"Baton Rouge","state_name":"Louisiana","state":"LA","address_2":null,"address_1":"P. O. Box 94004","zip":"70804-9004","phone":"225-342-7015"},{"fax":"207-287-1034","url":"http://www.maine.gov/governor/","name":"Paul LePage","city":"Augusta","state_name":"Maine","state":"ME","address_2":null,"address_1":"#1 State House Station","zip":"04333","phone":"207-287-3531"},{"fax":"410-974-3275","url":"http://www.gov.state.md.us/","name":"Larry Hogan","city":"Annapolis","state_name":"Maryland","state":"MD","address_2":"100 State Circle","address_1":"State House","zip":"21401","phone":"410-974-3901"},{"fax":"617-727-9725","url":"http://www.mass.gov/gov","name":"Charlie Baker","city":"Boston","state_name":"Massachusetts","state":"MA","address_2":"Office of the Governor, Room 360","address_1":"State House","zip":"02133","phone":"617-725-4005"},{"fax":"517-335-6863","url":"http://www.michigan.gov/gov","name":"Rick Snyder","city":"Lansing","state_name":"Michigan","state":"MI","address_2":null,"address_1":"P.O. Box 30013","zip":"48909","phone":"517-373-3400"},{"fax":"651-797-1850","url":"http://www.governor.state.mn.us/","name":"Mark Dayton","city":"St. Paul","state_name":"Minnesota","state":"MN","address_2":"75 Rev. Dr. Martin Luther King, Jr. Boulevard","address_1":"130 State Capitol","zip":"55155","phone":"651-201-3400"},{"fax":"601-359-3741","url":"http://www.governorbryant.com/","name":"Phil Bryant","city":"Jackson","state_name":"Mississippi","state":"MS","address_2":null,"address_1":"P.O. Box 139","zip":"39205","phone":"601-359-3150"},{"fax":"573-526-3291","url":"http://governor.mo.gov/","name":"Jeremiah W. (Jay) Nixon","city":"Jefferson City","state_name":"Missouri","state":"MO","address_2":"Room 216, P.O. Box 720","address_1":"Capitol Building","zip":"65102","phone":"573-751-3222"},{"fax":"406-444-5529","url":"http://governor.mt.gov/","name":"Steve Bullock","city":"Helena","state_name":"Montana","state":"MT","address_2":null,"address_1":"State Capitol","zip":"59620-0801","phone":"406-444-3111"},{"fax":"402-471-6031","url":"http://www.governor.nebraska.gov/","name":"Pete Ricketts","city":"Lincoln","state_name":"Nebraska","state":"NE","address_2":null,"address_1":"P.O. Box 94848","zip":"68509-4848","phone":"402-471-2244"},{"fax":"775-684-5683","url":"http://gov.nv.gov/","name":"Brian Sandoval","city":"Carson City","state_name":"Nevada","state":"NV","address_2":null,"address_1":"Capitol Building","zip":"89701","phone":"775-684-5670"},{"fax":"603-271-7640","url":"http://www.state.nh.us/governor/","name":"Maggie Hassan","city":"Concord","state_name":"New Hampshire","state":"NH","address_2":"107 North Main Street, Room 208","address_1":"Office of the Governor","zip":"03301","phone":"603-271-2121"},{"fax":"609-292-3454","url":"http://www.state.nj.us/governor/","name":"Chris Christie","city":"Trenton","state_name":"New Jersey","state":"NJ","address_2":"P.O. Box 001","address_1":"The State House","zip":"08625","phone":"609-292-6000"},{"fax":"505-476-2226","url":"http://www.governor.state.nm.us/","name":"Susana Martinez","city":"Santa Fe","state_name":"New Mexico","state":"NM","address_2":"Fourth Floor","address_1":"State Capitol","zip":"87501","phone":"505-476-2200"},{"fax":null,"url":"http://www.governor.ny.gov/","name":"Andrew Cuomo","city":"Albany","state_name":"New York","state":"NY","address_2":null,"address_1":"State Capitol","zip":"12224","phone":"518-474-8390"},{"fax":"919-733-2120","url":"http://www.governor.state.nc.us/","name":"Pat McCrory","city":"Raleigh","state_name":"North Carolina","state":"NC","address_2":null,"address_1":"Office of the Governor","zip":"27699-0301","phone":"919-814-2000"},{"fax":"701-328-2205","url":"http://governor.nd.gov/","name":"Jack Dalrymple","city":"Bismarck","state_name":"North Dakota","state":"ND","address_2":"600 E. Boulevard Ave.","address_1":"Dept. 101","zip":"58505-0001","phone":"701-328-2200"},{"fax":"670-664-2211","url":"http://www.gov.mp/","name":"Ralph Deleon Guerrero Torres","city":"Saipan","state_name":"Northern Mariana Islands","state":"MP","address_2":null,"address_1":"Caller Box 10007","zip":"96950","phone":"670-664-2280"},{"fax":"614-466-9354","url":"http://governor.ohio.gov/","name":"John Kasich","city":"Columbus","state_name":"Ohio","state":"OH","address_2":"77 South High Street","address_1":"30th Floor","zip":"43215","phone":"614-466-3555"},{"fax":"405-521-3353","url":"http://www.gov.ok.gov/","name":"Mary Fallin","city":"Oklahoma City","state_name":"Oklahoma","state":"OK","address_2":"2300 Lincoln Blvd., Rm. 212","address_1":"Capitol Building","zip":"73105","phone":"405-521-2342"},{"fax":"503-378-8970","url":"http://governor.oregon.gov/","name":"Kate Brown","city":"Salem","state_name":"Oregon","state":"OR","address_2":"900 Court St. N.","address_1":"State Capitol, Room 160","zip":"97301","phone":"503-378-4582"},{"fax":"717-772-8284","url":"http://www.governor.state.pa.us/","name":"Tom Wolf","city":"Harrisburg","state_name":"Pennsylvania","state":"PA","address_2":"Main Capitol Building","address_1":"Room 225","zip":"17120","phone":"717-787-2500"},{"fax":"787-721-5072","url":"http://www.fortaleza.pr.gov","name":"Alejandro Garc√≠a Padilla","city":"San Juan","state_name":"Puerto Rico","state":"PR","address_2":null,"address_1":"La Fortaleza","zip":"00902-0082","phone":"787-721-7000"},{"fax":"401-222-8096","url":"http://www.governor.state.ri.us/","name":"Gina Raimondo","city":"Providence","state_name":"Rhode Island","state":"RI","address_2":null,"address_1":"State House","zip":"02903","phone":"401-222-2080"},{"fax":"803-734-5167","url":"http://governor.sc.gov/","name":"Nikki R. Haley","city":"Columbia","state_name":"South Carolina","state":"SC","address_2":null,"address_1":"1205 Pendleton Street","zip":"29201","phone":"803-734-2100"},{"fax":"605-773-4711","url":"http://sd.gov/governor/","name":"Dennis Daugaard","city":"Pierre","state_name":"South Dakota","state":"SD","address_2":null,"address_1":"500 East Capitol Street","zip":"57501","phone":"605-773-3212"},{"fax":"615-532-9711","url":"http://www.state.tn.us/governor/","name":"Bill Haslam","city":"Nashville","state_name":"Tennessee","state":"TN","address_2":null,"address_1":"Tennessee State Capitol","zip":"37243-0001","phone":"615-741-2001"},{"fax":"512-463-5571","url":"http://www.governor.state.tx.us/","name":"Greg Abbott","city":"Austin","state_name":"Texas","state":"TX","address_2":null,"address_1":"P.O. Box 12428","zip":"78711","phone":"512-463-2000"},{"fax":"801-538-1557","url":"http://www.utah.gov/governor/","name":"Gary R. Herbert","city":"Salt Lake City","state_name":"Utah","state":"UT","address_2":"Suite 200","address_1":"Utah State Capitol","zip":"84114","phone":"801-538-1000"},{"fax":"802-828-3339","url":"http://www.vermont.gov/governor/","name":"Peter Shumlin","city":"Montpelier","state_name":"Vermont","state":"VT","address_2":"Pavilion Office Building","address_1":"109 State Street","zip":"05609","phone":"802-828-3333"},{"fax":"340-693-4374","url":"https://www.vi.gov/governor.html","name":"Kenneth Mapp","city":"St. Thomas","state_name":"Virgin Islands","state":"VI","address_2":"Charlotte Amalie","address_1":"Government House, 21-22 Kongens Gade","zip":"00802","phone":"340-774-0001"},{"fax":"804-371-6351","url":"http://www.governor.virginia.gov/","name":"Terry McAuliffe","city":"Richmond","state_name":"Virginia","state":"VA","address_2":"Third Floor","address_1":"State Capitol","zip":"23219","phone":"804-786-2211"},{"fax":"360-753-4110","url":"http://www.governor.wa.gov/","name":"Jay Inslee","city":"Olympia","state_name":"Washington","state":"WA","address_2":null,"address_1":"Office of the Governor","zip":"98504-0002","phone":"360-902-4111"},{"fax":null,"url":"http://www.governor.wv.gov/","name":"Earl Ray Tomblin","city":"Charleston","state_name":"West Virginia","state":"WV","address_2":null,"address_1":"1900 Kanawha Street","zip":"25305","phone":"304-558-2000"},{"fax":"608-267-8983","url":"http://www.wisgov.state.wi.us/","name":"Scott Walker","city":"Madison","state_name":"Wisconsin","state":"WI","address_2":null,"address_1":"115 East State Capitol","zip":"53707","phone":"608-266-1212"},{"fax":"307-632-3909","url":"http://governor.wy.gov/","name":"Matthew Mead","city":"Cheyenne","state_name":"Wyoming","state":"WY","address_2":"Room 124","address_1":"State Capitol Building","zip":"82002","phone":"307-777-7434"}]